STARLINK-1258           
1 45381U 20019X   20101.58335648  .00044604  00000-0  49097-3 0  9999
2 45381  52.9990 141.3693 0001059  71.6583   1.3915 15.62716569  4280
STARLINK-1264           
1 45382U 20019Y   20101.58335648  .00044480  00000-0  48995-3 0  9998
2 45382  52.9991 141.3356 0000942  72.0456  21.4040 15.62699608  4109
STARLINK-1266           
1 45383U 20019Z   20100.91667824  .00038147  00000-0  42089-3 0  9990
2 45383  52.9994 144.6189 0000921  85.3449 201.7294 15.62728103  4173
STARLINK-1267           
1 45384U 20019AA  20101.58335648  .00045525  00000-0  50106-3 0  9998
2 45384  52.9966 141.3443 0001221  75.3958  14.6676 15.62709930  4293
STARLINK-1268           
1 45385U 20019AB  20101.58335648  .00043438  00000-0  47769-3 0  9991
2 45385  52.9982 141.4441 0001440  62.1131 333.7744 15.62752183  4290
STARLINK-1272           
1 45386U 20019AC  20101.58335648  .00044643  00000-0  49152-3 0  9999
2 45386  52.9965 141.3532 0001537  67.0706  19.6009 15.62709766  4294
STARLINK-1274           
1 45387U 20019AD  20101.58335648  .00044461  00000-0  48942-3 0  9994
2 45387  52.9989 141.3795 0000935  58.8229   7.4954 15.62717083  4285
STARLINK-1280           
1 45388U 20019AE  20101.58335648  .03791075  00000-0  42250-1 0  9992
2 45388  52.9974 141.4880 0003783  84.5234 309.7439 15.58242184  4299
STARLINK-1283           
1 45389U 20019AF  20101.58335648  .04543148  00000-0  14948-1 0  9993
2 45389  52.9932 138.2083 0001689 205.8497 331.3647 15.86456568  4336
STARLINK-1284           
1 45390U 20019AG  20101.58335648  .00097191  00000-0  10552-2 0  9991
2 45390  52.9988 141.3628 0001184  71.5518   4.9530 15.62738211  4281
