OBJECT_NAME                     = STARLINK-1258
OBJECT_ID                       = 2020-019X
EPOCH                           = 2020-04-10T14:00:01.999
MEAN_MOTION                     = 15.62716569
ECCENTRICITY                    = 0.0001059
INCLINATION                     = 52.999
RA_OF_ASC_NODE                  = 141.3693
ARG_OF_PERICENTER               = 71.6583
MEAN_ANOMALY                    = 1.3915
EPHEMERIS_TYPE                  = 0
CLASSIFICATION_TYPE             = U
NORAD_CAT_ID                    = 45381
ELEMENT_SET_NO                  = 999
REV_AT_EPOCH                    = 428
BSTAR                           = 0.00049097
MEAN_MOTION_DOT                 = 0.00044604
MEAN_MOTION_DDOT                = 0

OBJECT_NAME                     = STARLINK-1264
OBJECT_ID                       = 2020-019Y
EPOCH                           = 2020-04-10T14:00:01.999
MEAN_MOTION                     = 15.62699608
ECCENTRICITY                    = 0.0000942
INCLINATION                     = 52.9991
RA_OF_ASC_NODE                  = 141.3356
ARG_OF_PERICENTER               = 72.0456
MEAN_ANOMALY                    = 21.404
EPHEMERIS_TYPE                  = 0
CLASSIFICATION_TYPE             = U
NORAD_CAT_ID                    = 45382
ELEMENT_SET_NO                  = 999
REV_AT_EPOCH                    = 410
BSTAR                           = 0.00048995
MEAN_MOTION_DOT                 = 0.0004448
MEAN_MOTION_DDOT                = 0

OBJECT_NAME                     = STARLINK-1266
OBJECT_ID                       = 2020-019Z
EPOCH                           = 2020-04-09T22:00:00.999
MEAN_MOTION                     = 15.62728103
ECCENTRICITY                    = 0.0000921
INCLINATION                     = 52.9994
RA_OF_ASC_NODE                  = 144.6189
ARG_OF_PERICENTER               = 85.3449
MEAN_ANOMALY                    = 201.7294
EPHEMERIS_TYPE                  = 0
CLASSIFICATION_TYPE             = U
NORAD_CAT_ID                    = 45383
ELEMENT_SET_NO                  = 999
REV_AT_EPOCH                    = 417
BSTAR                           = 0.00042089
MEAN_MOTION_DOT                 = 0.00038147
MEAN_MOTION_DDOT                = 0

OBJECT_NAME                     = STARLINK-1267
OBJECT_ID                       = 2020-019AA
EPOCH                           = 2020-04-10T14:00:01.999
MEAN_MOTION                     = 15.6270993
ECCENTRICITY                    = 0.0001221
INCLINATION                     = 52.9966
RA_OF_ASC_NODE                  = 141.3443
ARG_OF_PERICENTER               = 75.3958
MEAN_ANOMALY                    = 14.6676
EPHEMERIS_TYPE                  = 0
CLASSIFICATION_TYPE             = U
NORAD_CAT_ID                    = 45384
ELEMENT_SET_NO                  = 999
REV_AT_EPOCH                    = 429
BSTAR                           = 0.00050106
MEAN_MOTION_DOT                 = 0.00045525
MEAN_MOTION_DDOT                = 0

OBJECT_NAME                     = STARLINK-1268
OBJECT_ID                       = 2020-019AB
EPOCH                           = 2020-04-10T14:00:01.999
MEAN_MOTION                     = 15.62752183
ECCENTRICITY                    = 0.000144
INCLINATION                     = 52.9982
RA_OF_ASC_NODE                  = 141.4441
ARG_OF_PERICENTER               = 62.1131
MEAN_ANOMALY                    = 333.7744
EPHEMERIS_TYPE                  = 0
CLASSIFICATION_TYPE             = U
NORAD_CAT_ID                    = 45385
ELEMENT_SET_NO                  = 999
REV_AT_EPOCH                    = 429
BSTAR                           = 0.00047769
MEAN_MOTION_DOT                 = 0.00043438
MEAN_MOTION_DDOT                = 0

OBJECT_NAME                     = STARLINK-1272
OBJECT_ID                       = 2020-019AC
EPOCH                           = 2020-04-10T14:00:01.999
MEAN_MOTION                     = 15.62709766
ECCENTRICITY                    = 0.0001537
INCLINATION                     = 52.9965
RA_OF_ASC_NODE                  = 141.3532
ARG_OF_PERICENTER               = 67.0706
MEAN_ANOMALY                    = 19.6009
EPHEMERIS_TYPE                  = 0
CLASSIFICATION_TYPE             = U
NORAD_CAT_ID                    = 45386
ELEMENT_SET_NO                  = 999
REV_AT_EPOCH                    = 429
BSTAR                           = 0.00049152
MEAN_MOTION_DOT                 = 0.00044643
MEAN_MOTION_DDOT                = 0

OBJECT_NAME                     = STARLINK-1274
OBJECT_ID                       = 2020-019AD
EPOCH                           = 2020-04-10T14:00:01.999
MEAN_MOTION                     = 15.62717083
ECCENTRICITY                    = 0.0000935
INCLINATION                     = 52.9989
RA_OF_ASC_NODE                  = 141.3795
ARG_OF_PERICENTER               = 58.8229
MEAN_ANOMALY                    = 7.4954
EPHEMERIS_TYPE                  = 0
CLASSIFICATION_TYPE             = U
NORAD_CAT_ID                    = 45387
ELEMENT_SET_NO                  = 999
REV_AT_EPOCH                    = 428
BSTAR                           = 0.00048942
MEAN_MOTION_DOT                 = 0.00044461
MEAN_MOTION_DDOT                = 0

OBJECT_NAME                     = STARLINK-1280
OBJECT_ID                       = 2020-019AE
EPOCH                           = 2020-04-10T14:00:01.999
MEAN_MOTION                     = 15.58242184
ECCENTRICITY                    = 0.0003783
INCLINATION                     = 52.9974
RA_OF_ASC_NODE                  = 141.488
ARG_OF_PERICENTER               = 84.5234
MEAN_ANOMALY                    = 309.7439
EPHEMERIS_TYPE                  = 0
CLASSIFICATION_TYPE             = U
NORAD_CAT_ID                    = 45388
ELEMENT_SET_NO                  = 999
REV_AT_EPOCH                    = 429
BSTAR                           = 0.04225
MEAN_MOTION_DOT                 = 0.03791075
MEAN_MOTION_DDOT                = 0

OBJECT_NAME                     = STARLINK-1283
OBJECT_ID                       = 2020-019AF
EPOCH                           = 2020-04-10T14:00:01.999
MEAN_MOTION                     = 15.86456568
ECCENTRICITY                    = 0.0001689
INCLINATION                     = 52.9932
RA_OF_ASC_NODE                  = 138.2083
ARG_OF_PERICENTER               = 205.8497
MEAN_ANOMALY                    = 331.3647
EPHEMERIS_TYPE                  = 0
CLASSIFICATION_TYPE             = U
NORAD_CAT_ID                    = 45389
ELEMENT_SET_NO                  = 999
REV_AT_EPOCH                    = 433
BSTAR                           = 0.014948
MEAN_MOTION_DOT                 = 0.04543148
MEAN_MOTION_DDOT                = 0

OBJECT_NAME                     = STARLINK-1284
OBJECT_ID                       = 2020-019AG
EPOCH                           = 2020-04-10T14:00:01.999
MEAN_MOTION                     = 15.62738211
ECCENTRICITY                    = 0.0001184
INCLINATION                     = 52.9988
RA_OF_ASC_NODE                  = 141.3628
ARG_OF_PERICENTER               = 71.5518
MEAN_ANOMALY                    = 4.953
EPHEMERIS_TYPE                  = 0
CLASSIFICATION_TYPE             = U
NORAD_CAT_ID                    = 45390
ELEMENT_SET_NO                  = 999
REV_AT_EPOCH                    = 428
BSTAR                           = 0.0010552
MEAN_MOTION_DOT                 = 0.00097191
MEAN_MOTION_DDOT                = 0